{
  "norad_id": 39270,
  "name": "POPACS 3",
  "history": [
    {
      "epoch": "2026-03-28T16:03:35.224416Z",
      "apogee_km": 1106.2701362453536,
      "perigee_km": 316.08318386251995,
      "latitude_deg": -2.1823222648960704e-05,
      "longitude_deg": -110.58665958780054,
      "height_km": 424.5400483954406,
      "semi_major_axis_km": 7089.3136600539365,
      "eccentricity": 0.05573085,
      "inclination_deg": 81.0031,
      "raan_deg": 316.3964,
      "arg_perigee_deg": 315.0304,
      "mean_anomaly_deg": 40.6998,
      "mean_motion_rev_day": 14.54442225
    }
  ]
}